NORAD_CAT_ID,OBJECT_NAME,OBJECT_TYPE,EPOCH,MEAN_MOTION,ECCENTRICITY,INCLINATION,RA_OF_ASC_NODE,ARG_OF_PERICENTER,MEAN_ANOMALY,BSTAR,MEAN_MOTION_DOT,MEAN_MOTION_DDOT,TLE_LINE0,TLE_LINE1,TLE_LINE2,SEMIMAJOR_AXIS,PERIOD,APOGEE,PERIGEE,DECAYED
51787.0,STARLINK-3619,PAYLOAD,2022-04-04 14:00:01,15.49917308,0.0001685,53.2169,317.2514,59.0553,344.2276,-0.00064314,-0.00036825,0.0,0 STARLINK-3619,1 51787U 22017V   22094.58334491 -.00036825  00000-0 -64314-3 0  9991,2 51787  53.2169 317.2514 0001685  59.0553 344.2276 15.49917308  3701,6795.105,92.908,418.115,415.825,0.0
51787.0,STARLINK-3619,PAYLOAD,2022-04-04 22:00:00,15.49889365,0.0001749,53.217,315.6603,50.4063,53.8216,0.00023439,0.00012875,0.0,0 STARLINK-3619,1 51787U 22017V   22094.91667824  .00012875  00000-0  23439-3 0  9997,2 51787  53.2170 315.6603 0001749  50.4063  53.8216 15.49889365  3704,6795.186,92.91,418.24,415.86300000000006,0.0
51787.0,STARLINK-3619,PAYLOAD,2022-04-05 00:00:00,15.49873544,0.0001783,53.2172,315.2623,48.537,160.9257,0.0010032,0.00056878,0.0,0 STARLINK-3619,1 51787U 22017V   22095.00001157  .00056878  00000-0  10032-2 0  9994,2 51787  53.2172 315.2623 0001783  48.5370 160.9257 15.49873544  7241,6795.233,92.911,418.309,415.886,0.0
51787.0,STARLINK-3619,PAYLOAD,2022-04-05 14:00:01,15.49917172,0.00015,53.2174,312.4719,53.324,172.825,-0.00090001,-0.00051257,0.0,0 STARLINK-3619,1 51787U 22017V   22095.58335648 -.00051257  00000-0 -90001-3 0  9995,2 51787  53.2174 312.4719 0001500  53.3240 172.8250 15.49917172  3691,6795.105,92.908,417.989,415.951,0.0
51787.0,STARLINK-3619,PAYLOAD,2022-04-05 16:00:00,15.49910349,0.0001505,53.2176,312.0742,51.8156,279.504,-0.0009548,-0.00054316,0.0,0 STARLINK-3619,1 51787U 22017V   22095.66667824 -.00054316  00000-0 -95480-3 0  9993,2 51787  53.2176 312.0742 0001505  51.8156 279.5040 15.49910349  7357,6795.125,92.909,418.013,415.967,0.0
51787.0,STARLINK-3619,PAYLOAD,2022-04-05 22:00:00,15.49864405,0.0001658,53.2175,310.881,43.9573,243.0589,0.00032251,0.00017881,0.0,0 STARLINK-3619,1 51787U 22017V   22095.91667824  .00017881  00000-0  32251-3 0  9992,2 51787  53.2175 310.8810 0001658  43.9573 243.0589 15.49864405  3690,6795.259,92.911,418.251,415.99800000000016,0.0
51787.0,STARLINK-3619,PAYLOAD,2022-04-06 06:00:02,15.49897499,0.0001567,53.2174,309.2869,42.8263,305.1456,-0.00036539,-0.00021143,0.0,0 STARLINK-3619,1 51787U 22017V   22096.25002315 -.00021143  00000-0 -36539-3 0  9999,2 51787  53.2174 309.2869 0001567  42.8263 305.1456 15.49897499  7447,6795.163000000001,92.909,418.092,415.963,0.0
51787.0,STARLINK-3619,PAYLOAD,2022-04-06 14:00:01,15.49898188,0.0001488,53.2177,307.6929,48.0803,0.7488,0.00049703,0.00027871,0.0,0 STARLINK-3619,1 51787U 22017V   22096.58334491  .00027871  00000-0  49703-3 0  9997,2 51787  53.2177 307.6929 0001488  48.0803   0.7488 15.49898188  3691,6795.161,92.909,418.037,416.015,0.0
51787.0,STARLINK-3619,PAYLOAD,2022-04-06 22:00:00,15.49899286,0.0001624,53.2175,306.1019,39.3351,70.4363,-0.00059466,-0.00034073,0.0,0 STARLINK-3619,1 51787U 22017V   22096.91667824 -.00034073  00000-0 -59466-3 0  9994,2 51787  53.2175 306.1019 0001624  39.3351  70.4363 15.49899286  7540,6795.156999999997,92.909,418.126,415.919,0.0
51787.0,STARLINK-3619,PAYLOAD,2022-04-07 14:00:01,15.4989221,0.0001396999999999,53.2172,302.914,46.0689,185.5258,0.0004621,0.00025868,0.0,0 STARLINK-3619,1 51787U 22017V   22097.58334491  .00025868  00000-0  46210-3 0  9992,2 51787  53.2172 302.9140 0001397  46.0689 185.5258 15.49892210  3695,6795.178000000001,92.91,417.992,416.094,0.0
51787.0,STARLINK-3619,PAYLOAD,2022-04-07 20:00:01,15.499329199999998,0.0001633,53.217,301.7209,41.7556,145.5371,-0.0016155,-0.00091236,0.0,0 STARLINK-3619,1 51787U 22017V   22097.83334491 -.00091236  00000-0 -16155-2 0  9998,2 51787  53.2170 301.7209 0001633  41.7556 145.5371 15.49932920  7682,6795.059,92.907,418.034,415.814,0.0
51787.0,STARLINK-3619,PAYLOAD,2022-04-07 22:00:00,15.49910493,0.0001702,53.2171,301.323,41.8726,250.6609,-0.0011821,-0.00067033,0.0,0 STARLINK-3619,1 51787U 22017V   22097.91667824 -.00067033  00000-0 -11821-2 0  9999,2 51787  53.2171 301.3230 0001702  41.8726 250.6609 15.49910493  3678,6795.125,92.909,418.146,415.833,0.0
51787.0,STARLINK-3619,PAYLOAD,2022-04-08 06:00:00,15.49878201,0.0001617,53.2167,299.7286,45.7675,307.6887,-0.00018781,-0.00011093,0.0,0 STARLINK-3619,1 51787U 22017V   22098.25001157 -.00011093  00000-0 -18781-3 0  9996,2 51787  53.2167 299.7286 0001617  45.7675 307.6887 15.49878201  7759,6795.219,92.911,418.1830000000001,415.985,0.0
51787.0,STARLINK-3619,PAYLOAD,2022-04-08 14:00:03,15.49885904,0.0001546,53.217,298.1349,50.2396,4.2433,0.00048499,0.00027171,0.0,0 STARLINK-3619,1 51787U 22017V   22098.58336806  .00027171  00000-0  48499-3 0  9995,2 51787  53.2170 298.1349 0001546  50.2396   4.2433 15.49885904  3692,6795.196999999999,92.91,418.112,416.011,0.0
51787.0,STARLINK-3619,PAYLOAD,2022-04-08 22:00:00,15.49903465,0.0001673,53.2172,296.5441,40.6996,74.5723,-0.00097217,-0.00055277,0.0,0 STARLINK-3619,1 51787U 22017V   22098.91667824 -.00055277  00000-0 -97217-3 0  9991,2 51787  53.2172 296.5441 0001673  40.6996  74.5723 15.49903465  7856,6795.145,92.909,418.147,415.87300000000016,0.0
51787.0,STARLINK-3619,PAYLOAD,2022-04-09 14:00:01,15.4986663,0.0001460999999999,53.2175,293.3562,43.6867,193.3712,0.00023771,0.00013054,0.0,0 STARLINK-3619,1 51787U 22017V   22099.58334491  .00013054  00000-0  23771-3 0  9995,2 51787  53.2175 293.3562 0001461  43.6867 193.3712 15.49866630  3691,6795.253000000002,92.911,418.111,416.125,0.0
51787.0,STARLINK-3619,PAYLOAD,2022-04-09 16:00:00,15.49881589,0.0001524,53.2175,292.9586,41.7503,300.527,-0.00031557,-0.00018318,0.0,0 STARLINK-3619,1 51787U 22017V   22099.66667824 -.00018318  00000-0 -31557-3 0  9994,2 51787  53.2175 292.9586 0001524  41.7503 300.5270 15.49881589  7974,6795.209,92.91,418.11,416.039,0.0
51787.0,STARLINK-3619,PAYLOAD,2022-04-09 22:00:00,15.49891019,0.0001631999999999,53.2177,291.7624,35.9134,262.0472,-0.00048953,-0.00028142,0.0,0 STARLINK-3619,1 51787U 22017V   22099.91667824 -.00028142  00000-0 -48953-3 0  9996,2 51787  53.2177 291.7624 0001632  35.9134 262.0472 15.49891019  3680,6795.182,92.91,418.156,415.93800000000016,0.0
51787.0,STARLINK-3619,PAYLOAD,2022-04-10 06:00:02,15.49709236,0.0001481,53.2177,290.1636,43.112,315.883,-0.0034615,-0.0019101,0.0,0 STARLINK-3619,1 51787U 22017V   22100.25002315 -.00191010  00000-0 -34615-2 0  9998,2 51787  53.2177 290.1636 0001481  43.1120 315.8830 15.49709236  8065,6795.7130000000025,92.921,418.584,416.572,0.0
51787.0,STARLINK-3619,PAYLOAD,2022-04-10 14:00:01,15.49691575,0.0001759,53.2177,288.5666,32.808,26.7406,-0.013854,-0.00723075,0.0,0 STARLINK-3619,1 51787U 22017V   22100.58334491 -.00723075  00000-0 -13854-1 0  9990,2 51787  53.2177 288.5666 0001759  32.8080  26.7406 15.49691575  8116,6795.765,92.922,418.825,416.434,0.0
51787.0,STARLINK-3619,PAYLOAD,2022-04-10 22:00:00,15.49178154,0.0001774999999999,53.2176,286.975,36.3775,83.5405,-0.014004,-0.0071811,0.0,0 STARLINK-3619,1 51787U 22017V   22100.91667824 -.00718110  00000-0 -14004-1 0  9998,2 51787  53.2176 286.9750 0001775  36.3775  83.5405 15.49178154  3689,6797.266,92.953,420.338,417.924,0.0
51787.0,STARLINK-3619,PAYLOAD,2022-04-11 14:00:01,15.48159876,0.0001604,53.2177,283.79,47.4497,191.3678,-0.014555,-0.00719874,0.0,0 STARLINK-3619,1 51787U 22017V   22101.58334491 -.00719874  00000-0 -14555-1 0  9992,2 51787  53.2177 283.7900 0001604  47.4497 191.3678 15.48159876  3686,6800.246,93.014,423.202,421.02,0.0
51787.0,STARLINK-3619,PAYLOAD,2022-04-11 20:00:01,15.4777751,0.0001821,53.2174,282.599,40.8623,151.9097,-0.014764,-0.00720472,0.0,0 STARLINK-3619,1 51787U 22017V   22101.83334491 -.00720472  00000-0 -14764-1 0  9998,2 51787  53.2174 282.5990 0001821  40.8623 151.9097 15.47777510  8309,6801.366,93.037,424.47,421.99300000000005,0.0
51787.0,STARLINK-3619,PAYLOAD,2022-04-11 22:00:00,15.47649077,0.0001657,53.2175,282.2019,40.6471,256.7003,-0.014796,-0.0071889,0.0,0 STARLINK-3619,1 51787U 22017V   22101.91667824 -.00718890  00000-0 -14796-1 0  9992,2 51787  53.2175 282.2019 0001657  40.6471 256.7003 15.47649077  3677,6801.7419999999975,93.044,424.734,422.48,0.0
51787.0,STARLINK-3619,PAYLOAD,2022-04-12 14:00:01,15.46631571,0.0001669,53.2175,279.0244,35.2516,17.3187,-0.015426,-0.00723043,0.0,0 STARLINK-3619,1 51787U 22017V   22102.58334491 -.00723043  00000-0 -15426-1 0  9994,2 51787  53.2175 279.0244 0001669  35.2516  17.3187 15.46631571  3677,6804.725,93.106,427.726,425.455,0.0
51787.0,STARLINK-3619,PAYLOAD,2022-04-12 20:00:01,15.46249449,0.000158,53.2174,277.8361,39.6641,325.4817,-0.015648,-0.00723719,0.0,0 STARLINK-3619,1 51787U 22017V   22102.83334491 -.00723719  00000-0 -15648-1 0  9998,2 51787  53.2174 277.8361 0001580  39.6641 325.4817 15.46249449  8465,6805.846,93.129,428.787,426.636,0.0
51787.0,STARLINK-3619,PAYLOAD,2022-04-12 22:00:00,15.46116232,0.0001721999999999,53.2173,277.44,36.7749,72.4886,-0.015496,-0.00714164,0.0,0 STARLINK-3619,1 51787U 22017V   22102.91667824 -.00714164  00000-0 -15496-1 0  9991,2 51787  53.2173 277.4400 0001722  36.7749  72.4886 15.46116232  3664,6806.236999999999,93.137,429.274,426.93,0.0
51787.0,STARLINK-3619,PAYLOAD,2022-04-13 14:00:03,15.45099457,0.000177,53.2175,274.2696,41.5525,179.3855,-0.016165,-0.00718949,0.0,0 STARLINK-3619,1 51787U 22017V   22103.58336806 -.00718949  00000-0 -16165-1 0  9997,2 51787  53.2175 274.2696 0001770  41.5525 179.3855 15.45099457  3679,6809.223000000001,93.198,432.293,429.883,0.0
51787.0,STARLINK-3619,PAYLOAD,2022-04-13 22:00:00,15.44587313,0.0001575,53.2175,272.6888,45.3268,230.3359,-0.0163509999999999,-0.00714847,0.0,0 STARLINK-3619,1 51787U 22017V   22103.91667824 -.00714847  00000-0 -16351-1 0  9991,2 51787  53.2175 272.6888 0001575  45.3268 230.3359 15.44587313  8633,6810.728,93.229,433.666,431.52,0.0
